{"type": "FeatureCollection", "features": [ {"type": "Feature", "properties": {"norad_id": 29808, "name": "FENGYUN 1C DEB", "group": "fengyun-1c-debris", "lat": 21.933814327483578, "lon": -84.17601339902983, "alt_km": 467.6022902229197, "timestamp": "2025-12-24T16:52:41.803370+00:00", "meta": {"OBJECT_NAME": "FENGYUN 1C DEB", "OBJECT_ID": "1999-025DA", "EPOCH": "2025-12-23T06:56:29.399424", "MEAN_MOTION": 15.28574951, "ECCENTRICITY": 0.00215755, "INCLINATION": 99.0119, "RA_OF_ASC_NODE": 277.7776, "ARG_OF_PERICENTER": 80.8991, "MEAN_ANOMALY": 82.1825, "EPHEMERIS_TYPE": 0, "CLASSIFICATION_TYPE": "U", "NORAD_CAT_ID": 29808, "ELEMENT_SET_NO": 999, "REV_AT_EPOCH": 98386, "BSTAR": 0.014754525, "MEAN_MOTION_DOT": 0.00436764, "MEAN_MOTION_DDOT": 0}, "tle": {"line1": "1 29808U 99025DA  25357.28922916  .00436764  00000+0  14755-1 0  9995", "line2": "2 29808  99.0119 277.7776 0021575  80.8991  82.1825 15.28574951983863"}}, "geometry": {"type": "Point", "coordinates": [-84.17601339902983, 21.933814327483578]}}, {"type": "Feature", "properties": {"norad_id": 29809, "name": "FENGYUN 1C DEB", "group": "fengyun-1c-debris", "lat": 41.49021829145578, "lon": 150.7214582775122, "alt_km": 815.3559311950521, "timestamp": "2025-12-24T16:52:41.803380+00:00", "meta": {"OBJECT_NAME": "FENGYUN 1C DEB", "OBJECT_ID": "1999-025DB", "EPOCH": "2025-12-23T09:24:12.862656", "MEAN_MOTION": 14.46619704, "ECCENTRICITY": 0.01155176, "INCLINATION": 98.8618, "RA_OF_ASC_NODE": 321.419, "ARG_OF_PERICENTER": 318.0004, "MEAN_ANOMALY": 194.0294, "EPHEMERIS_TYPE": 0, "CLASSIFICATION_TYPE": "U", "NORAD_CAT_ID": 29809, "ELEMENT_SET_NO": 999, "REV_AT_EPOCH": 99621, "BSTAR": 0.00033283893, "MEAN_MOTION_DOT": 1.25e-05, "MEAN_MOTION_DDOT": 0}, "tle": {"line1": "1 29809U 99025DB  25357.39181554  .00001250  00000+0  33284-3 0  9991", "line2": "2 29809  98.8618 321.4190 0115517 318.0004 194.0294 14.46619704996214"}}, "geometry": {"type": "Point", "coordinates": [150.7214582775122, 41.49021829145578]}}, {"type": "Feature", "properties": {"norad_id": 29810, "name": "FENGYUN 1C DEB", "group": "fengyun-1c-debris", "lat": 48.3748586077289, "lon": -133.29461510663072, "alt_km": 829.6912397607648, "timestamp": "2025-12-24T16:52:41.803391+00:00", "meta": {"OBJECT_NAME": "FENGYUN 1C DEB", "OBJECT_ID": "1999-025DC", "EPOCH": "2025-12-24T01:25:17.572224", "MEAN_MOTION": 14.29144993, "ECCENTRICITY": 0.00664065, "INCLINATION": 99.2053, "RA_OF_ASC_NODE": 35.511, "ARG_OF_PERICENTER": 346.3419, "MEAN_ANOMALY": 72.3058, "EPHEMERIS_TYPE": 0, "CLASSIFICATION_TYPE": "U", "NORAD_CAT_ID": 29810, "ELEMENT_SET_NO": 999, "REV_AT_EPOCH": 98539, "BSTAR": 0.00024608596, "MEAN_MOTION_DOT": 5.9e-06, "MEAN_MOTION_DDOT": 0}, "tle": {"line1": "1 29810U 99025DC  25358.05923116  .00000590  00000+0  24609-3 0  9992", "line2": "2 29810  99.2053  35.5110 0066406 346.3419  72.3058 14.29144993985392"}}, "geometry": {"type": "Point", "coordinates": [-133.29461510663072, 48.3748586077289]}}, {"type": "Feature", "properties": {"norad_id": 29812, "name": "FENGYUN 1C DEB", "group": "fengyun-1c-debris", "lat": -76.73375955676255, "lon": -134.92549452111714, "alt_km": 792.5877639808987, "timestamp": "2025-12-24T16:52:41.803401+00:00", "meta": {"OBJECT_NAME": "FENGYUN 1C DEB", "OBJECT_ID": "1999-025DE", "EPOCH": "2025-12-22T12:25:28.951680", "MEAN_MOTION": 14.02020328, "ECCENTRICITY": 0.01437047, "INCLINATION": 98.3493, "RA_OF_ASC_NODE": 184.545, "ARG_OF_PERICENTER": 300.2704, "MEAN_ANOMALY": 115.4819, "EPHEMERIS_TYPE": 0, "CLASSIFICATION_TYPE": "U", "NORAD_CAT_ID": 29812, "ELEMENT_SET_NO": 999, "REV_AT_EPOCH": 96309, "BSTAR": 0.0010836609, "MEAN_MOTION_DOT": 1.77e-05, "MEAN_MOTION_DDOT": 0}, "tle": {"line1": "1 29812U 99025DE  25356.51769620  .00001770  00000+0  10837-2 0  9999", "line2": "2 29812  98.3493 184.5450 0143704 300.2704 115.4819 14.02020328963090"}}, "geometry": {"type": "Point", "coordinates": [-134.92549452111714, -76.73375955676255]}}, {"type": "Feature", "properties": {"norad_id": 29813, "name": "FENGYUN 1C DEB", "group": "fengyun-1c-debris", "lat": -50.44894088894859, "lon": -172.5256585141021, "alt_km": 861.6663317196035, "timestamp": "2025-12-24T16:52:41.803412+00:00", "meta": {"OBJECT_NAME": "FENGYUN 1C DEB", "OBJECT_ID": "1999-025DF", "EPOCH": "2025-12-24T00:35:19.161312", "MEAN_MOTION": 14.0945418, "ECCENTRICITY": 0.0012354, "INCLINATION": 98.7266, "RA_OF_ASC_NODE": 17.5353, "ARG_OF_PERICENTER": 189.093, "MEAN_ANOMALY": 199.9981, "EPHEMERIS_TYPE": 0, "CLASSIFICATION_TYPE": "U", "NORAD_CAT_ID": 29813, "ELEMENT_SET_NO": 999, "REV_AT_EPOCH": 97419, "BSTAR": 1.7484678e-05, "MEAN_MOTION_DOT": -1.2e-07, "MEAN_MOTION_DDOT": 0}, "tle": {"line1": "1 29813U 99025DF  25358.02452733 -.00000012  00000+0  17485-4 0  9999", "line2": "2 29813  98.7266  17.5353 0012354 189.0930 199.9981 14.09454180974194"}}, "geometry": {"type": "Point", "coordinates": [-172.5256585141021, -50.44894088894859]}}, {"type": "Feature", "properties": {"norad_id": 29815, "name": "FENGYUN 1C DEB", "group": "fengyun-1c-debris", "lat": 20.502256921984742, "lon": 3.919276440412981, "alt_km": 649.1759297945182, "timestamp": "2025-12-24T16:52:41.803422+00:00", "meta": {"OBJECT_NAME": "FENGYUN 1C DEB", "OBJECT_ID": "1999-025DH", "EPOCH": "2025-12-24T00:22:42.328416", "MEAN_MOTION": 14.63782242, "ECCENTRICITY": 0.01841375, "INCLINATION": 98.0549, "RA_OF_ASC_NODE": 6.2823, "ARG_OF_PERICENTER": 99.8617, "MEAN_ANOMALY": 262.3428, "EPHEMERIS_TYPE": 0, "CLASSIFICATION_TYPE": "U", "NORAD_CAT_ID": 29815, "ELEMENT_SET_NO": 999, "REV_AT_EPOCH": 16, "BSTAR": 0.00053862719, "MEAN_MOTION_DOT": 3.543e-05, "MEAN_MOTION_DDOT": 0}, "tle": {"line1": "1 29815U 99025DH  25358.01576769  .00003543  00000+0  53863-3 0  9996", "line2": "2 29815  98.0549   6.2823 0184137  99.8617 262.3428 14.63782242   160"}}, "geometry": {"type": "Point", "coordinates": [3.919276440412981, 20.502256921984742]}}, {"type": "Feature", "properties": {"norad_id": 29816, "name": "FENGYUN 1C DEB", "group": "fengyun-1c-debris", "lat": 71.1354186164916, "lon": -168.2084686705451, "alt_km": 670.4824434554403, "timestamp": "2025-12-24T16:52:41.803434+00:00", "meta": {"OBJECT_NAME": "FENGYUN 1C DEB", "OBJECT_ID": "1999-025DJ", "EPOCH": "2025-12-24T02:17:36.470400", "MEAN_MOTION": 14.44392167, "ECCENTRICITY": 0.02379804, "INCLINATION": 98.9921, "RA_OF_ASC_NODE": 218.757, "ARG_OF_PERICENTER": 143.3077, "MEAN_ANOMALY": 14.4609, "EPHEMERIS_TYPE": 0, "CLASSIFICATION_TYPE": "U", "NORAD_CAT_ID": 29816, "ELEMENT_SET_NO": 999, "REV_AT_EPOCH": 98351, "BSTAR": 0.00083533125, "MEAN_MOTION_DOT": 4.017e-05, "MEAN_MOTION_DDOT": 0}, "tle": {"line1": "1 29816U 99025DJ  25358.09556100  .00004017  00000+0  83533-3 0  9996", "line2": "2 29816  98.9921 218.7570 0237980 143.3077  14.4609 14.44392167983511"}}, "geometry": {"type": "Point", "coordinates": [-168.2084686705451, 71.1354186164916]}}, {"type": "Feature", "properties": {"norad_id": 29817, "name": "FENGYUN 1C DEB", "group": "fengyun-1c-debris", "lat": 18.796718924595147, "lon": 170.33813559951687, "alt_km": 853.4101868780626, "timestamp": "2025-12-24T16:52:41.803445+00:00", "meta": {"OBJECT_NAME": "FENGYUN 1C DEB", "OBJECT_ID": "1999-025DK", "EPOCH": "2025-12-24T06:00:14.416704", "MEAN_MOTION": 14.14266364, "ECCENTRICITY": 0.00116538, "INCLINATION": 98.5584, "RA_OF_ASC_NODE": 346.9661, "ARG_OF_PERICENTER": 342.7963, "MEAN_ANOMALY": 32.5084, "EPHEMERIS_TYPE": 0, "CLASSIFICATION_TYPE": "U", "NORAD_CAT_ID": 29817, "ELEMENT_SET_NO": 999, "REV_AT_EPOCH": 97558, "BSTAR": 0.00031107631, "MEAN_MOTION_DOT": 5.52e-06, "MEAN_MOTION_DDOT": 0}, "tle": {"line1": "1 29817U 99025DK  25358.25016686  .00000552  00000+0  31108-3 0  9996", "line2": "2 29817  98.5584 346.9661 0011653 342.7963  32.5084 14.14266364975586"}}, "geometry": {"type": "Point", "coordinates": [170.33813559951687, 18.796718924595147]}}, {"type": "Feature", "properties": {"norad_id": 29818, "name": "FENGYUN 1C DEB", "group": "fengyun-1c-debris", "lat": -15.918470734258882, "lon": 53.04227030241864, "alt_km": 958.9780369083819, "timestamp": "2025-12-24T16:52:41.803455+00:00", "meta": {"OBJECT_NAME": "FENGYUN 1C DEB", "OBJECT_ID": "1999-025DL", "EPOCH": "2025-12-24T04:31:55.355232", "MEAN_MOTION": 14.04510169, "ECCENTRICITY": 0.01146451, "INCLINATION": 98.7205, "RA_OF_ASC_NODE": 235.057, "ARG_OF_PERICENTER": 353.7561, "MEAN_ANOMALY": 123.1527, "EPHEMERIS_TYPE": 0, "CLASSIFICATION_TYPE": "U", "NORAD_CAT_ID": 29818, "ELEMENT_SET_NO": 999, "REV_AT_EPOCH": 96970, "BSTAR": 0.00035489789, "MEAN_MOTION_DOT": 5.58e-06, "MEAN_MOTION_DDOT": 0}, "tle": {"line1": "1 29818U 99025DL  25358.18883513  .00000558  00000+0  35490-3 0  9994", "line2": "2 29818  98.7205 235.0570 0114645 353.7561 123.1527 14.04510169969707"}}, "geometry": {"type": "Point", "coordinates": [53.04227030241864, -15.918470734258882]}}, {"type": "Feature", "properties": {"norad_id": 29819, "name": "FENGYUN 1C DEB", "group": "fengyun-1c-debris", "lat": -29.75881976239589, "lon": 156.9095037939199, "alt_km": 1030.8431786585897, "timestamp": "2025-12-24T16:52:41.803466+00:00", "meta": {"OBJECT_NAME": "FENGYUN 1C DEB", "OBJECT_ID": "1999-025DM", "EPOCH": "2025-12-24T04:13:03.073728", "MEAN_MOTION": 14.02213287, "ECCENTRICITY": 0.01915109, "INCLINATION": 98.7343, "RA_OF_ASC_NODE": 341.4462, "ARG_OF_PERICENTER": 35.2116, "MEAN_ANOMALY": 33.1967, "EPHEMERIS_TYPE": 0, "CLASSIFICATION_TYPE": "U", "NORAD_CAT_ID": 29819, "ELEMENT_SET_NO": 999, "REV_AT_EPOCH": 96780, "BSTAR": 0.00033297115, "MEAN_MOTION_DOT": 5.57e-06, "MEAN_MOTION_DDOT": 0}, "tle": {"line1": "1 29819U 99025DM  25358.17573002  .00000557  00000+0  33297-3 0  9995", "line2": "2 29819  98.7343 341.4462 0191510  35.2116  33.1967 14.02213287967803"}}, "geometry": {"type": "Point", "coordinates": [156.9095037939199, -29.75881976239589]}}]}